OBJECT_NAME,OBJECT_ID,EPOCH,MEAN_MOTION,ECCENTRICITY,INCLINATION,RA_OF_ASC_NODE,ARG_OF_PERICENTER,MEAN_ANOMALY,EPHEMERIS_TYPE,CLASSIFICATION_TYPE,NORAD_CAT_ID,ELEMENT_SET_NO,REV_AT_EPOCH,BSTAR,MEAN_MOTION_DOT,MEAN_MOTION_DDOT
KUIPER-00616,2026-151N,2026-07-24T01:52:41.269152,15.38538141,.0004438,51.8789,137.2806,169.3864,190.7218,0,U,69775,999,338,.9744242E-3,.37453E-3,0
KUIPER-00617,2026-151P,2026-07-24T05:10:39.308736,15.37918355,.0003646,51.8798,136.7022,165.5147,194.5946,0,U,69776,999,340,.9939565E-3,.37439E-3,0
KUIPER-00619,2026-151Q,2026-07-24T04:55:10.519104,15.38747882,.00017625,51.8805,136.6290,84.4515,275.6674,0,U,69777,999,340,.9343608E-3,.36131E-3,0
KUIPER-00621,2026-151R,2026-07-24T05:00:07.295328,15.38474179,.00016836,51.8799,136.6562,127.1233,232.9908,0,U,69778,999,340,.11273035E-2,.43325E-3,0
KUIPER-00622,2026-151S,2026-07-24T06:00:02.000160,15.33999748,.00069764,51.8742,136.7090,179.4818,287.5017,0,U,69779,999,404,.22642845E-2,.76049E-3,0
KUIPER-00623,2026-151T,2026-07-24T02:10:43.143168,15.37550129,.00046042,51.8777,137.3632,161.2560,198.8597,0,U,69780,999,338,.91782615E-3,.34116E-3,0
KUIPER-00626,2026-151U,2026-07-24T04:25:12.475488,15.34538766,.00106483,51.8714,137.2236,196.7706,163.2929,0,U,69781,999,339,-.63615577E-3,-.21972E-3,0
KUIPER-00627,2026-151V,2026-07-24T04:29:40.350048,15.34447830,.00106849,51.8699,137.2406,202.2006,157.8518,0,U,69782,999,339,.60533752E-3,.20211E-3,0
KUIPER-00629,2026-151W,2026-07-24T06:00:02.000160,15.22562405,.00057619,51.8844,137.2359,196.7296,39.7794,0,U,69783,999,373,-.53187679E-1,-.1155318E-1,0
KUIPER-00631,2026-151X,2026-07-24T06:00:02.000160,15.21875430,.00082821,51.8803,137.1894,194.7434,49.9516,0,U,69784,999,130,-.86292714E-1,-.179044E-1,0
KUIPER-00634,2026-151Y,2026-07-24T05:11:40.212960,15.37943051,.00029943,51.8772,136.7067,162.6951,197.4138,0,U,69785,999,340,.98482771E-3,.37118E-3,0
KUIPER-00639,2026-151Z,2026-07-24T04:20:42.176544,15.34621800,.00097837,51.8685,137.2000,190.6806,169.3973,0,U,69786,999,339,.8164869E-3,.27567E-3,0
KUIPER-00641,2026-151AA,2026-07-24T04:33:27.102528,15.33732927,.00107033,51.8684,137.2563,200.4297,159.6261,0,U,69787,999,339,-.83481318E-3,-.27973E-3,0
KUIPER-00644,2026-151AB,2026-07-24T07:10:34.387104,15.36533626,.00078947,51.8736,136.5017,192.1527,167.9271,0,U,69788,999,340,.76739911E-3,.27524E-3,0
KUIPER-00646,2026-151AC,2026-07-24T02:42:00.319680,15.35109100,.00095763,51.8701,137.4942,195.3773,164.6923,0,U,69789,999,338,.47782084E-3,.16202E-3,0
KUIPER-00647,2026-151AD,2026-07-24T04:26:19.898592,15.34348686,.00110017,51.8662,137.2217,198.2854,161.7737,0,U,69790,999,339,.97419899E-3,.32714E-3,0
KUIPER-00662,2026-151AE,2026-07-24T06:00:02.000160,15.24711597,.00081447,51.8798,137.1191,186.1697,50.1938,0,U,69791,999,241,-.52517754E-1,-.1212695E-1,0
LINK,2026-152A,2026-07-23T07:54:23.346432,15.67541512,.00228413,20.5967,264.7720,100.7182,259.5838,0,U,69792,999,313,.11186602E-2,.132002E-2,0
ISS OBJECT YJ,1998-067YJ,2026-07-24T00:15:32.115168,15.50483902,.00076695,51.6316,117.7116,341.5839,18.4871,0,U,69794,999,336,.56462076E-3,.32488E-3,0
ISS OBJECT YK,1998-067YK,2026-07-24T03:08:50.210016,15.51537278,.00061325,51.6312,117.0165,346.1587,13.9233,0,U,69795,999,338,.12756866E-2,.77233E-3,0
ISS OBJECT YL,1998-067YL,2026-07-24T03:12:49.465440,15.51117026,.00084537,51.6314,117.0340,341.9367,18.1321,0,U,69796,999,337,.99406023E-3,.59081E-3,0
ISS OBJECT YM,1998-067YM,2026-07-20T01:46:35.225184,15.50880460,.0009481,51.6311,137.1739,319.6197,40.4088,0,U,69797,999,273,.86101476E-3,.50643E-3,0
ISS OBJECT YN,1998-067YN,2026-07-24T03:15:30.868416,15.50749287,.0009095,51.6320,117.0476,346.2802,13.7939,0,U,69798,999,338,.67050456E-3,.39087E-3,0
PROVES-ELECTRA,1998-067YP,2026-07-24T03:12:04.662720,15.51156082,.0009373,51.6322,117.0303,333.6585,26.3927,0,U,69799,999,337,.87350385E-3,.51902E-3,0
QIANFAN-201,2026-153A,2026-07-24T07:26:25.923264,14.22096926,.00087941,88.9931,357.9989,149.0891,211.0820,0,U,69800,999,284,.1462124E-3,.338E-5,0
QIANFAN-202,2026-153B,2026-07-24T06:43:04.995552,14.18846001,.0007759,88.9931,358.0131,148.6887,211.4766,0,U,69801,999,283,.10337425E-3,.229E-5,0
QIANFAN-203,2026-153C,2026-07-24T06:27:00.604800,14.19390377,.00083212,88.9931,358.0114,150.4882,209.6779,0,U,69802,999,283,.90189355E-4,.204E-5,0
QIANFAN-204,2026-153D,2026-07-24T04:47:53.632320,14.20116176,.00087237,88.9931,358.0197,151.7672,208.3993,0,U,69803,999,282,.7607925E-4,.177E-5,0
QIANFAN-205,2026-153E,2026-07-24T06:29:36.129120,14.18483473,.00085919,88.9931,358.0113,149.3275,210.8418,0,U,69804,999,283,.77296373E-4,.174E-5,0
