KUIPER-00616            
1 69775U 26151N   26205.07825543  .00037453  00000+0  97442-3 0  9998
2 69775  51.8789 137.2806 0004438 169.3864 190.7218 15.38538141  3388
KUIPER-00617            
1 69776U 26151P   26205.21573274  .00037439  00000+0  99396-3 0  9990
2 69776  51.8798 136.7022 0003646 165.5147 194.5946 15.37918355  3406
KUIPER-00619            
1 69777U 26151Q   26205.20498286  .00036131  00000+0  93436-3 0  9996
2 69777  51.8805 136.6290 0001762  84.4515 275.6674 15.38747882  3402
KUIPER-00621            
1 69778U 26151R   26205.20841777  .00043325  00000+0  11273-2 0  9995
2 69778  51.8799 136.6562 0001683 127.1233 232.9908 15.38474179  3403
KUIPER-00622            
1 69779U 26151S   26205.25002315  .00076049  00000+0  22643-2 0  9990
2 69779  51.8742 136.7090 0006976 179.4818 287.5017 15.33999748  4045
KUIPER-00623            
1 69780U 26151T   26205.09077712  .00034116  00000+0  91783-3 0  9998
2 69780  51.8777 137.3632 0004604 161.2560 198.8597 15.37550129  3386
KUIPER-00626            
1 69781U 26151U   26205.18417217 -.00021972  00000+0 -63616-3 0  9999
2 69781  51.8714 137.2236 0010648 196.7706 163.2929 15.34538766  3393
KUIPER-00627            
1 69782U 26151V   26205.18727257  .00020211  00000+0  60534-3 0  9997
2 69782  51.8699 137.2406 0010684 202.2006 157.8518 15.34447830  3395
KUIPER-00629            
1 69783U 26151W   26205.25002315 -.01155318  00000+0 -53188-1 0  9992
2 69783  51.8844 137.2359 0005761 196.7296  39.7794 15.22562405  3738
KUIPER-00631            
1 69784U 26151X   26205.25002315 -.01790440  00000+0 -86293-1 0  9997
2 69784  51.8803 137.1894 0008282 194.7434  49.9516 15.21875430  1300
KUIPER-00634            
1 69785U 26151Y   26205.21643765  .00037118  00000+0  98483-3 0  9993
2 69785  51.8772 136.7067 0002994 162.6951 197.4138 15.37943051  3409
KUIPER-00639            
1 69786U 26151Z   26205.18104371  .00027567  00000+0  81649-3 0  9998
2 69786  51.8685 137.2000 0009783 190.6806 169.3973 15.34621800  3394
KUIPER-00641            
1 69787U 26151AA  26205.18989702 -.00027973  00000+0 -83481-3 0  9997
2 69787  51.8684 137.2563 0010703 200.4297 159.6261 15.33732927  3390
KUIPER-00644            
1 69788U 26151AB  26205.29900911  .00027524  00000+0  76740-3 0  9995
2 69788  51.8736 136.5017 0007894 192.1527 167.9271 15.36533626  3408
KUIPER-00646            
1 69789U 26151AC  26205.11250370  .00016202  00000+0  47782-3 0  9999
2 69789  51.8701 137.4942 0009576 195.3773 164.6923 15.35109100  3385
KUIPER-00647            
1 69790U 26151AD  26205.18495253  .00032714  00000+0  97420-3 0  9999
2 69790  51.8662 137.2217 0011001 198.2854 161.7737 15.34348686  3399
KUIPER-00662            
1 69791U 26151AE  26205.25002315 -.01212695  00000+0 -52518-1 0  9999
2 69791  51.8798 137.1191 0008144 186.1697  50.1938 15.24711597  2415
LINK                    
1 69792U 26152A   26204.32943688  .00132002  00000+0  11187-2 0  9993
2 69792  20.5967 264.7720 0022841 100.7182 259.5838 15.67541512  3132
ISS OBJECT YJ           
1 69794U 98067YJ  26205.01078837  .00032488  00000+0  56462-3 0  9994
2 69794  51.6316 117.7116 0007669 341.5839  18.4871 15.50483902  3362
ISS OBJECT YK           
1 69795U 98067YK  26205.13113669  .00077233  00000+0  12757-2 0  9996
2 69795  51.6312 117.0165 0006132 346.1587  13.9233 15.51537278  3382
ISS OBJECT YL           
1 69796U 98067YL  26205.13390585  .00059081  00000+0  99406-3 0  9999
2 69796  51.6314 117.0340 0008453 341.9367  18.1321 15.51117026  3376
ISS OBJECT YM           
1 69797U 98067YM  26201.07401881  .00050643  00000+0  86101-3 0  9994
2 69797  51.6311 137.1739 0009481 319.6197  40.4088 15.50880460  2739
ISS OBJECT YN           
1 69798U 98067YN  26205.13577394  .00039087  00000+0  67050-3 0  9990
2 69798  51.6320 117.0476 0009095 346.2802  13.7939 15.50749287  3386
PROVES-ELECTRA          
1 69799U 98067YP  26205.13338730  .00051902  00000+0  87350-3 0  9995
2 69799  51.6322 117.0303 0009373 333.6585  26.3927 15.51156082  3377
QIANFAN-201             
1 69800U 26153A   26205.31002226  .00000338  00000+0  14621-3 0  9991
2 69800  88.9931 357.9989 0008794 149.0891 211.0820 14.22096926  2842
QIANFAN-202             
1 69801U 26153B   26205.27991893  .00000229  00000+0  10337-3 0  9993
2 69801  88.9931 358.0131 0007759 148.6887 211.4766 14.18846001  2838
QIANFAN-203             
1 69802U 26153C   26205.26875700  .00000204  00000+0  90189-4 0  9998
2 69802  88.9931 358.0114 0008321 150.4882 209.6779 14.19390377  2836
QIANFAN-204             
1 69803U 26153D   26205.19992630  .00000177  00000+0  76079-4 0  9994
2 69803  88.9931 358.0197 0008723 151.7672 208.3993 14.20116176  2823
QIANFAN-205             
1 69804U 26153E   26205.27055705  .00000174  00000+0  77296-4 0  9996
2 69804  88.9931 358.0113 0008591 149.3275 210.8418 14.18483473  2832
